{"type": "FeatureCollection", "features": [ {"type": "Feature", "properties": {"norad_id": 66697, "name": "IRIDE FM3", "group": "last-30-days", "lat": 37.7132087215407, "lon": 66.7148411797094, "alt_km": 508.8801398494388, "timestamp": "2025-12-26T23:26:40.920437+00:00", "meta": {"OBJECT_NAME": "IRIDE FM3", "OBJECT_ID": "2025-276AH", "EPOCH": "2025-12-26T16:57:00.861408", "MEAN_MOTION": 15.18223319, "ECCENTRICITY": 0.0001503, "INCLINATION": 97.4381, "RA_OF_ASC_NODE": 72.2468, "ARG_OF_PERICENTER": 149.7209, "MEAN_ANOMALY": 210.4112, "EPHEMERIS_TYPE": 0, "CLASSIFICATION_TYPE": "U", "NORAD_CAT_ID": 66697, "ELEMENT_SET_NO": 999, "REV_AT_EPOCH": 424, "BSTAR": 0.00034796, "MEAN_MOTION_DOT": 7.055e-05, "MEAN_MOTION_DDOT": 0}, "tle": {"line1": "1 66697U 25276AH  25360.70625997  .00007055  00000+0  34796-3 0  9995", "line2": "2 66697  97.4381  72.2468 0001503 149.7209 210.4112 15.18223319  4244"}}, "geometry": {"type": "Point", "coordinates": [66.7148411797094, 37.7132087215407]}}, {"type": "Feature", "properties": {"norad_id": 66698, "name": "IRIDE FM4", "group": "last-30-days", "lat": -43.099615780260656, "lon": 79.50128512604728, "alt_km": 520.1492478505979, "timestamp": "2025-12-26T23:26:40.920448+00:00", "meta": {"OBJECT_NAME": "IRIDE FM4", "OBJECT_ID": "2025-276AJ", "EPOCH": "2025-12-26T18:00:02.998944", "MEAN_MOTION": 15.17414178, "ECCENTRICITY": 0.0002912, "INCLINATION": 97.4386, "RA_OF_ASC_NODE": 72.2559, "ARG_OF_PERICENTER": 234.4622, "MEAN_ANOMALY": 283.7467, "EPHEMERIS_TYPE": 0, "CLASSIFICATION_TYPE": "U", "NORAD_CAT_ID": 66698, "ELEMENT_SET_NO": 999, "REV_AT_EPOCH": 130, "BSTAR": -0.0010796, "MEAN_MOTION_DOT": -0.00021571, "MEAN_MOTION_DDOT": 0}, "tle": {"line1": "1 66698U 25276AJ  25360.75003471 -.00021571  00000+0 -10796-2 0  9992", "line2": "2 66698  97.4386  72.2559 0002912 234.4622 283.7467 15.17414178  1301"}}, "geometry": {"type": "Point", "coordinates": [79.50128512604728, -43.099615780260656]}}, {"type": "Feature", "properties": {"norad_id": 66699, "name": "IRIDE FM5", "group": "last-30-days", "lat": -41.26950005185411, "lon": 79.07028780342313, "alt_km": 518.3041464280059, "timestamp": "2025-12-26T23:26:40.920461+00:00", "meta": {"OBJECT_NAME": "IRIDE FM5", "OBJECT_ID": "2025-276AK", "EPOCH": "2025-12-26T12:33:00.445248", "MEAN_MOTION": 15.17468684, "ECCENTRICITY": 0.0003106, "INCLINATION": 97.4403, "RA_OF_ASC_NODE": 72.0389, "ARG_OF_PERICENTER": 280.927, "MEAN_ANOMALY": 79.1614, "EPHEMERIS_TYPE": 0, "CLASSIFICATION_TYPE": "U", "NORAD_CAT_ID": 66699, "ELEMENT_SET_NO": 999, "REV_AT_EPOCH": 421, "BSTAR": 0.0028356, "MEAN_MOTION_DOT": 0.00057122, "MEAN_MOTION_DDOT": 0}, "tle": {"line1": "1 66699U 25276AK  25360.52292182  .00057122  00000+0  28356-2 0  9997", "line2": "2 66699  97.4403  72.0389 0003106 280.9270  79.1614 15.17468684  4217"}}, "geometry": {"type": "Point", "coordinates": [79.07028780342313, -41.26950005185411]}}, {"type": "Feature", "properties": {"norad_id": 66700, "name": "IRIDE FM6", "group": "last-30-days", "lat": 41.891055600667855, "lon": 65.7940971439445, "alt_km": 508.08879250955124, "timestamp": "2025-12-26T23:26:40.920472+00:00", "meta": {"OBJECT_NAME": "IRIDE FM6", "OBJECT_ID": "2025-276AL", "EPOCH": "2025-12-26T16:55:54.837120", "MEAN_MOTION": 15.18286268, "ECCENTRICITY": 0.0002034, "INCLINATION": 97.4413, "RA_OF_ASC_NODE": 72.2597, "ARG_OF_PERICENTER": 150.6509, "MEAN_ANOMALY": 209.4839, "EPHEMERIS_TYPE": 0, "CLASSIFICATION_TYPE": "U", "NORAD_CAT_ID": 66700, "ELEMENT_SET_NO": 999, "REV_AT_EPOCH": 424, "BSTAR": 0.00051488, "MEAN_MOTION_DOT": 0.00010495, "MEAN_MOTION_DDOT": 0}, "tle": {"line1": "1 66700U 25276AL  25360.70549580  .00010495  00000+0  51488-3 0  9992", "line2": "2 66700  97.4413  72.2597 0002034 150.6509 209.4839 15.18286268  4248"}}, "geometry": {"type": "Point", "coordinates": [65.7940971439445, 41.891055600667855]}}, {"type": "Feature", "properties": {"norad_id": 66701, "name": "IRIDE FM7", "group": "last-30-days", "lat": -40.74604269771292, "lon": 78.95690547548737, "alt_km": 521.6072285922492, "timestamp": "2025-12-26T23:26:40.920483+00:00", "meta": {"OBJECT_NAME": "IRIDE FM7", "OBJECT_ID": "2025-276AM", "EPOCH": "2025-12-26T17:17:48.289056", "MEAN_MOTION": 15.17706542, "ECCENTRICITY": 0.0006394, "INCLINATION": 97.4413, "RA_OF_ASC_NODE": 72.2397, "ARG_OF_PERICENTER": 195.2418, "MEAN_ANOMALY": 164.8625, "EPHEMERIS_TYPE": 0, "CLASSIFICATION_TYPE": "U", "NORAD_CAT_ID": 66701, "ELEMENT_SET_NO": 999, "REV_AT_EPOCH": 424, "BSTAR": 0.0085581, "MEAN_MOTION_DOT": 0.00176631, "MEAN_MOTION_DDOT": 0}, "tle": {"line1": "1 66701U 25276AM  25360.72069779  .00176631  00000+0  85581-2 0  9997", "line2": "2 66701  97.4413  72.2397 0006394 195.2418 164.8625 15.17706542  4242"}}, "geometry": {"type": "Point", "coordinates": [78.95690547548737, -40.74604269771292]}}, {"type": "Feature", "properties": {"norad_id": 66702, "name": "IRIDE FM8", "group": "last-30-days", "lat": -40.35189866757978, "lon": 78.8566316046054, "alt_km": 519.620627500266, "timestamp": "2025-12-26T23:26:40.920495+00:00", "meta": {"OBJECT_NAME": "IRIDE FM8", "OBJECT_ID": "2025-276AN", "EPOCH": "2025-12-26T17:17:36.963744", "MEAN_MOTION": 15.17449436, "ECCENTRICITY": 0.000293, "INCLINATION": 97.4392, "RA_OF_ASC_NODE": 72.2311, "ARG_OF_PERICENTER": 244.8767, "MEAN_ANOMALY": 115.2162, "EPHEMERIS_TYPE": 0, "CLASSIFICATION_TYPE": "U", "NORAD_CAT_ID": 66702, "ELEMENT_SET_NO": 999, "REV_AT_EPOCH": 424, "BSTAR": 0.00044868, "MEAN_MOTION_DOT": 8.918e-05, "MEAN_MOTION_DDOT": 0}, "tle": {"line1": "1 66702U 25276AN  25360.72056671  .00008918  00000+0  44868-3 0  9991", "line2": "2 66702  97.4392  72.2311 0002930 244.8767 115.2162 15.17449436  4247"}}, "geometry": {"type": "Point", "coordinates": [78.8566316046054, -40.35189866757978]}}, {"type": "Feature", "properties": {"norad_id": 66703, "name": "PELICAN-6", "group": "last-30-days", "lat": -34.542929996632424, "lon": 77.64888338855098, "alt_km": 520.4570653020819, "timestamp": "2025-12-26T23:26:40.920506+00:00", "meta": {"OBJECT_NAME": "PELICAN-6", "OBJECT_ID": "2025-276AP", "EPOCH": "2025-12-26T17:16:02.404128", "MEAN_MOTION": 15.1736098, "ECCENTRICITY": 0.0001201, "INCLINATION": 97.4401, "RA_OF_ASC_NODE": 72.2349, "ARG_OF_PERICENTER": 211.7635, "MEAN_ANOMALY": 148.3526, "EPHEMERIS_TYPE": 0, "CLASSIFICATION_TYPE": "U", "NORAD_CAT_ID": 66703, "ELEMENT_SET_NO": 999, "REV_AT_EPOCH": 424, "BSTAR": 0.00025365, "MEAN_MOTION_DOT": 4.997e-05, "MEAN_MOTION_DDOT": 0}, "tle": {"line1": "1 66703U 25276AP  25360.71947227  .00004997  00000+0  25365-3 0  9991", "line2": "2 66703  97.4401  72.2349 0001201 211.7635 148.3526 15.17360980  4244"}}, "geometry": {"type": "Point", "coordinates": [77.64888338855098, -34.542929996632424]}}, {"type": "Feature", "properties": {"norad_id": 66704, "name": "FLOCK 4H-1", "group": "last-30-days", "lat": 32.029905298041335, "lon": 67.81766601701905, "alt_km": 510.6401198636431, "timestamp": "2025-12-26T23:26:40.920518+00:00", "meta": {"OBJECT_NAME": "FLOCK 4H-1", "OBJECT_ID": "2025-276AQ", "EPOCH": "2025-12-26T18:00:02.998944", "MEAN_MOTION": 15.1816347, "ECCENTRICITY": 0.0002354, "INCLINATION": 97.4374, "RA_OF_ASC_NODE": 72.2823, "ARG_OF_PERICENTER": 161.592, "MEAN_ANOMALY": 71.9535, "EPHEMERIS_TYPE": 0, "CLASSIFICATION_TYPE": "U", "NORAD_CAT_ID": 66704, "ELEMENT_SET_NO": 999, "REV_AT_EPOCH": 240, "BSTAR": -0.0007883, "MEAN_MOTION_DOT": -0.00016122, "MEAN_MOTION_DDOT": 0}, "tle": {"line1": "1 66704U 25276AQ  25360.75003471 -.00016122  00000+0 -78830-3 0  9990", "line2": "2 66704  97.4374  72.2823 0002354 161.5920  71.9535 15.18163470  2403"}}, "geometry": {"type": "Point", "coordinates": [67.81766601701905, 32.029905298041335]}}, {"type": "Feature", "properties": {"norad_id": 66705, "name": "FLOCK 4H-2", "group": "last-30-days", "lat": 35.54390478923073, "lon": 67.15154395168757, "alt_km": 508.5828399501688, "timestamp": "2025-12-26T23:26:40.920530+00:00", "meta": {"OBJECT_NAME": "FLOCK 4H-2", "OBJECT_ID": "2025-276AR", "EPOCH": "2025-12-26T18:32:31.013088", "MEAN_MOTION": 15.18287206, "ECCENTRICITY": 3.86e-05, "INCLINATION": 97.4371, "RA_OF_ASC_NODE": 72.3057, "ARG_OF_PERICENTER": 119.2954, "MEAN_ANOMALY": 240.8319, "EPHEMERIS_TYPE": 0, "CLASSIFICATION_TYPE": "U", "NORAD_CAT_ID": 66705, "ELEMENT_SET_NO": 999, "REV_AT_EPOCH": 425, "BSTAR": 0.0023393, "MEAN_MOTION_DOT": 0.00048168, "MEAN_MOTION_DDOT": 0}, "tle": {"line1": "1 66705U 25276AR  25360.77258117  .00048168  00000+0  23393-2 0  9998", "line2": "2 66705  97.4371  72.3057 0000386 119.2954 240.8319 15.18287206  4257"}}, "geometry": {"type": "Point", "coordinates": [67.15154395168757, 35.54390478923073]}}, {"type": "Feature", "properties": {"norad_id": 66706, "name": "FLOCK 4H-3", "group": "last-30-days", "lat": -28.401696305072292, "lon": 76.56014198815026, "alt_km": 519.759103060278, "timestamp": "2025-12-26T23:26:40.920542+00:00", "meta": {"OBJECT_NAME": "FLOCK 4H-3", "OBJECT_ID": "2025-276AS", "EPOCH": "2025-12-26T17:14:26.384352", "MEAN_MOTION": 15.1752238, "ECCENTRICITY": 0.0003071, "INCLINATION": 97.4437, "RA_OF_ASC_NODE": 72.252, "ARG_OF_PERICENTER": 228.2979, "MEAN_ANOMALY": 131.7992, "EPHEMERIS_TYPE": 0, "CLASSIFICATION_TYPE": "U", "NORAD_CAT_ID": 66706, "ELEMENT_SET_NO": 999, "REV_AT_EPOCH": 424, "BSTAR": 0.00028664, "MEAN_MOTION_DOT": 5.683e-05, "MEAN_MOTION_DDOT": 0}, "tle": {"line1": "1 66706U 25276AS  25360.71836093  .00005683  00000+0  28664-3 0  9990", "line2": "2 66706  97.4437  72.2520 0003071 228.2979 131.7992 15.17522380  4245"}}, "geometry": {"type": "Point", "coordinates": [76.56014198815026, -28.401696305072292]}}]}